STARLINK-2720           
1 48653U 21044R   26068.81877654 -.00000252  00000+0  36232-5 0  9995
2 48653  53.1589 113.2604 0001337  89.4472 270.6682 15.30186760263845
TEVEL2-8                
1 63239U 25052AF  26068.66815442  .00019130  00000+0  69304-3 0  9993
2 63239  97.4055 324.2923 0008031 124.9191 235.2804 15.28392908 54807
